DMSP 5D-3 F16 (USA 172) 
1 28054U 03048A   26062.20425068  .00000159  00000+0  10678-3 0  9996
2 28054  98.9998  85.2824 0008198  88.7847 350.5303 14.14458974154501
METEOSAT-9 (MSG-2)      
1 28912U 05049B   26062.09632663  .00000113  00000+0  00000+0 0  9994
2 28912   9.1220  55.1947 0001870 220.2001 325.8556  1.00276507  5931
DMSP 5D-3 F17 (USA 191) 
1 29522U 06050A   26062.17243149  .00000202  00000+0  12665-3 0  9994
2 29522  98.7412  70.9001 0010132   5.5706 354.5579 14.14960394997420
FENGYUN 3A              
1 32958U 08026A   26061.82771838  .00000118  00000+0  76469-4 0  9997
2 32958  98.6790   4.7076 0009830  75.9488 284.2781 14.19543813920319
GOES 14                 
1 35491U 09033A   26062.12744012  .00000114  00000+0  00000+0 0  9998
2 35491   1.4156  84.4389 0002190 295.8945  28.9504  1.00123619  5524
DMSP 5D-3 F18 (USA 210) 
1 35951U 09057A   26062.13548728  .00000298  00000+0  17760-3 0  9990
2 35951  98.8953  43.1872 0010763 187.0418 173.0605 14.14830790844597
EWS-G2 (GOES 15)        
1 36411U 10008A   26062.09987998  .00000006  00000+0  00000+0 0  9993
2 36411   1.0058  85.1718 0001668  23.7748 151.3712  1.00269225 58575
COMS 1                  
1 36744U 10032A   26061.81745456 -.00000359  00000+0  00000+0 0  9991
2 36744   4.5320  76.8967 0001163 272.6803 233.4605  1.00272530 50022
FENGYUN 3B              
1 37214U 10059A   26062.22855655 -.00000162  00000+0 -60657-4 0  9994
2 37214  98.9784 107.7260 0022964 125.5929 314.2137 14.14814579792444
SUOMI NPP               
1 37849U 11061A   26062.18814582  .00000105  00000+0  70687-4 0  9990
2 37849  98.7863   3.8427 0000441 293.3252  66.7877 14.19541363743409
METEOSAT-10 (MSG-3)     
1 38552U 12035B   26061.73080794 -.00000019  00000+0  00000+0 0  9996
2 38552   4.4198  61.4700 0002487 292.1297  70.2445  1.00276905 49793
METOP-B                 
1 38771U 12049A   26062.10984919  .00000134  00000+0  81125-4 0  9997
2 38771  98.6655 115.6570 0001240 302.2211  57.8846 14.21442069698194
INSAT-3D                
1 39216U 13038B   26061.97034322 -.00000354  00000+0  00000+0 0  9992
2 39216   1.6518  83.9345 0001804 238.4653 317.1344  1.00273934 46013
FENGYUN 3C              
1 39260U 13052A   26062.17374839  .00000146  00000+0  95582-4 0  9992
2 39260  98.4881  40.9756 0014150 332.8381  27.2052 14.15726401643563
METEOR-M 2              
1 40069U 14037A   26062.20733118  .00000535  00000+0  26412-3 0  9995
2 40069  98.5008  41.7575 0005776 356.8575   3.2566 14.21426488604264
HIMAWARI-8              
1 40267U 14060A   26061.83377823 -.00000292  00000+0  00000+0 0  9998
2 40267   0.0178 119.6241 0000868 185.8972 295.8861  1.00270021 41695
FENGYUN 2G              
1 40367U 14090A   26062.03577688 -.00000316  00000+0  00000+0 0  9993
2 40367   5.3704  74.1018 0001998 153.0682  46.1729  1.00274940 40936
METEOSAT-11 (MSG-4)     
1 40732U 15034A   26062.08921993  .00000047  00000+0  00000+0 0  9995
2 40732   2.9341  71.6891 0001800 270.8063 219.9029  1.00265683  6159
ELEKTRO-L 2             
1 41105U 15074A   26061.88740795 -.00000131  00000+0  00000+0 0  9995
2 41105   6.4268  71.8299 0003496 235.4549 158.3340  1.00270708 37446
INSAT-3DR               
1 41752U 16054A   26062.10196000 -.00000092  00000+0  00000+0 0  9998
2 41752   0.0435  97.3591 0013355 184.2380 349.9514  1.00272272 34757
HIMAWARI-9              
1 41836U 16064A   26061.83377823 -.00000291  00000+0  00000+0 0  9996
2 41836   0.0170 189.1650 0001127 171.7739 240.5949  1.00272669 34146
GOES 16                 
1 41866U 16071A   26062.15392248 -.00000106  00000+0  00000+0 0  9996
2 41866   0.1441  90.2185 0002599 216.3842 165.0243  1.00271628 34042
FENGYUN 4A              
1 41882U 16077A   26062.32573449 -.00000371  00000+0  00000+0 0  9997
2 41882   2.0531  81.4319 0007352 135.1146 185.3417  1.00280074 33861
CYGFM05                 
1 41884U 16078A   26061.88191075  .00027874  00000+0  45143-3 0  9998
2 41884  34.9565 242.0476 0006933 227.0707 132.9434 15.51768101512201
CYGFM04                 
1 41885U 16078B   26061.75347913  .00033809  00000+0  48392-3 0  9993
2 41885  34.9318 215.2099 0006069 259.5153 100.4887 15.55134948512387
CYGFM02                 
1 41886U 16078C   26061.85691096  .00045702  00000+0  60564-3 0  9999
2 41886  34.9405 211.5722 0007055 260.5677  99.4249 15.57149529512546
CYGFM01                 
1 41887U 16078D   26061.91102205  .00028729  00000+0  45806-3 0  9998
2 41887  34.9394 243.6807 0006498 218.7493 141.2764 15.52200156512159
CYGFM08                 
1 41888U 16078E   26061.83333584  .00031637  00000+0  47772-3 0  9992
2 41888  34.9427 226.1438 0008125 243.3728 116.6163 15.53671040512386
CYGFM07                 
1 41890U 16078G   26061.80295089  .00032976  00000+0  48570-3 0  9993
2 41890  34.9445 214.8351 0006682 263.2097  96.7866 15.54357251512400
CYGFM03                 
1 41891U 16078H   26061.77407581  .00023532  00000+0  34714-3 0  9995
2 41891  34.9401 217.0068 0005772 249.3234 110.6871 15.54370064512375
FENGYUN 3D              
1 43010U 17072A   26062.22283086  .00000093  00000+0  65913-4 0  9991
2 43010  99.0011  34.7925 0001898  26.3204 333.8067 14.19712696429958
NOAA 20 (JPSS-1)        
1 43013U 17073A   26062.13229778  .00000081  00000+0  59529-4 0  9996
2 43013  98.7685   2.5849 0000900 145.6534 214.4700 14.19533980429423
GOES 17                 
1 43226U 18022A   26062.14836481 -.00000198  00000+0  00000+0 0  9998
2 43226   0.6649  87.5818 0002322 219.7732 177.4660  1.00270443 29363
FENGYUN 2H              
1 43491U 18050A   26062.10291333 -.00000142  00000+0  00000+0 0  9999
2 43491   2.7571  80.3700 0001989 173.3681  23.2400  1.00272569 28372
METOP-C                 
1 43689U 18087A   26062.13447237  .00000134  00000+0  81006-4 0  9997
2 43689  98.6779 123.6183 0002155 109.0588 251.0823 14.21494386379761
GEO-KOMPSAT-2A          
1 43823U 18100A   26060.97179095 -.00000362  00000+0  00000+0 0  9991
2 43823   0.0180  67.6811 0001336 333.4250 236.7399  1.00270368 26557
METEOR-M2 2             
1 44387U 19038A   26062.24201848  .00000214  00000+0  11245-3 0  9994
2 44387  98.9070  48.0046 0001255  15.1716 344.9499 14.24330904346215
ARKTIKA-M 1             
1 47719U 21016A   26061.82287547 -.00000108  00000+0  00000+0 0  9994
2 47719  63.2036  72.8571 7242814 269.4536  15.2019  2.00620868 36653
FENGYUN 3E              
1 49008U 21062A   26062.14858035  .00000031  00000+0  35329-4 0  9991
2 49008  98.7506  66.7354 0002480  54.0730 306.0676 14.19892418241532
GOES 18                 
1 51850U 22021A   26062.13151346  .00000081  00000+0  00000+0 0  9993
2 51850   0.0269  75.3180 0000581 316.5209  39.3881  1.00271419  5521
NOAA 21 (JPSS-2)        
1 54234U 22150A   26062.09659336  .00000110  00000+0  73245-4 0  9991
2 54234  98.7548   2.4383 0002501 118.3069 241.8359 14.19550087171491
METEOSAT-12 (MTG-I1)    
1 54743U 22170C   26062.08722659 -.00000022  00000+0  00000+0 0  9993
2 54743   0.7443  28.9468 0001909 281.6757 241.3450  1.00274625 11913
TIANMU-1 03             
1 55973U 23039A   26062.20430757  .00021117  00000+0  46605-3 0  9995
2 55973  97.5163 232.3055 0003978 119.8139 240.3504 15.43904258164461
TIANMU-1 04             
1 55974U 23039B   26062.22948032  .00022368  00000+0  48670-3 0  9991
2 55974  97.5096 231.4936 0004633 116.0766 244.0959 15.44310168164477
TIANMU-1 05             
1 55975U 23039C   26062.18064389  .00021102  00000+0  46665-3 0  9998
2 55975  97.5143 231.9348 0003740 137.6093 222.5444 15.43844937164445
TIANMU-1 06             
1 55976U 23039D   26062.22940774  .00022157  00000+0  48171-3 0  9990
2 55976  97.5153 232.5198 0004032 132.6215 227.5373 15.44340214164472
FENGYUN 3G              
1 56232U 23055A   26062.14068679  .00035540  00000+0  53988-3 0  9992
2 56232  49.9933 172.8165 0010690 343.9832  16.0796 15.54118457163522
METEOR-M2 3             
1 57166U 23091A   26062.21289546  .00000021  00000+0  27848-4 0  9998
2 57166  98.6228 119.2948 0005025 113.9322 246.2384 14.24036849139439
TIANMU-1 07             
1 57399U 23101A   26062.17166922  .00008803  00000+0  31324-3 0  9994
2 57399  97.2739 115.2658 0004733 146.5396 213.6144 15.29187787145445
TIANMU-1 08             
1 57400U 23101B   26061.81455363  .00000469  00000+0  19083-4 0  9996
2 57400  97.2730 114.6953 0006290 145.3494 214.8157 15.29213455145388
TIANMU-1 09             
1 57401U 23101C   26060.81433519  .00000691  00000+0  26964-4 0  9998
2 57401  97.2691 113.1975 0005114 156.2312 203.9165 15.29179768145237
TIANMU-1 10             
1 57402U 23101D   26062.15760866  .00009021  00000+0  32065-3 0  9990
2 57402  97.2764 115.4456 0006846 151.4354 208.7263 15.29203521145433
FENGYUN 3F              
1 57490U 23111A   26062.20508525  .00000075  00000+0  55571-4 0  9994
2 57490  98.6941 134.1492 0001339  82.8951 277.2377 14.19917566133828
ARKTIKA-M 2             
1 58584U 23198A   26062.08261615  .00000137  00000+0  00000+0 0  9997
2 58584  63.2203 166.1216 6876964 267.7841  18.8417  2.00614888 16195
TIANMU-1 11             
1 58645U 23205A   26062.18249229  .00007168  00000+0  28313-3 0  9994
2 58645  97.3546  85.4390 0009775  30.0633 330.1164 15.25771911121355
TIANMU-1 12             
1 58646U 23205B   26062.21459510  .00007864  00000+0  31118-3 0  9995
2 58646  97.3534  85.2511 0007570  16.8076 343.3412 15.25694585121342
TIANMU-1 13             
1 58647U 23205C   26062.18011831  .00007386  00000+0  29206-3 0  9996
2 58647  97.3562  85.4532 0007208 358.3705   1.7508 15.25743579121338
TIANMU-1 14             
1 58648U 23205D   26062.23017476  .00007537  00000+0  29810-3 0  9993
2 58648  97.3497  84.7772 0008122   1.1621 358.9635 15.25721508121347
TIANMU-1 19             
1 58660U 23208A   26062.18867697  .00012230  00000+0  42780-3 0  9999
2 58660  97.4387 178.1701 0004353 344.9787  15.1324 15.29665289121112
TIANMU-1 20             
1 58661U 23208B   26062.17803772  .00011533  00000+0  38897-3 0  9992
2 58661  97.4325 178.6866 0006662 350.7483   9.3634 15.30854606121197
TIANMU-1 21             
1 58662U 23208C   26062.25031814  .00013661  00000+0  43266-3 0  9992
2 58662  97.4379 181.0092 0006403 343.7694  16.3342 15.32840930121321
TIANMU-1 22             
1 58663U 23208D   26062.20471324  .00011400  00000+0  40360-3 0  9993
2 58663  97.4381 178.2014 0003639  16.9528 343.1833 15.29293790121126
TIANMU-1 15             
1 58700U 24004A   26062.16234530  .00007355  00000+0  29117-3 0  9992
2 58700  97.4659 248.4101 0007212  12.9282 347.2140 15.25714698119604
TIANMU-1 16             
1 58701U 24004B   26062.21155740  .00008211  00000+0  32442-3 0  9991
2 58701  97.4602 247.7870 0005754  18.3431 341.8013 15.25749085119611
TIANMU-1 17             
1 58702U 24004C   26062.19404238  .00008580  00000+0  33850-3 0  9991
2 58702  97.4634 248.2200 0004976  21.6849 338.4599 15.25785637119608
TIANMU-1 18             
1 58703U 24004D   26062.17899204  .00008310  00000+0  32848-3 0  9998
2 58703  97.4651 248.4156 0004388  22.9577 337.1856 15.25736898119606
INSAT-3DS               
1 58990U 24033A   26062.03222352 -.00000171  00000+0  00000+0 0  9996
2 58990   0.0592 265.2910 0002302  89.9379 259.2358  1.00270353 46001
METEOR-M2 4             
1 59051U 24039A   26062.17761009  .00000039  00000+0  36986-4 0  9992
2 59051  98.6895  22.8775 0008061 112.7089 247.4941 14.22415894104197
GOES 19                 
1 60133U 24119A   26062.14280992 -.00000264  00000+0  00000+0 0  9992
2 60133   0.0107 254.0171 0000953 121.1942 121.9052  1.00272211  5900
FENGYUN 3H              
1 65815U 25219A   26062.13092271  .00000086  00000+0  61020-4 0  9991
2 65815  98.6677   5.0150 0001415  66.2057 293.9268 14.19930425 22335
